{"type":"FeatureCollection","attribution":"Aerodrome data: OurAirports (public domain)","features":[{"type":"Feature","geometry":{"type":"Point","coordinates":[144.837898,-37.670732]},"properties":{"name":"Melbourne Airport","ident":"YMML","type":"large_airport","rank":1,"iata":"MEL","locality":"Melbourne","elev_ft":434}},{"type":"Feature","geometry":{"type":"Point","coordinates":[144.467196,-38.040269]},"properties":{"name":"Melbourne Avalon International Airport","ident":"YMAV","type":"large_airport","rank":1,"iata":"AVV","locality":"Geelong/Melbourne","elev_ft":35}},{"type":"Feature","geometry":{"type":"Point","coordinates":[142.988688,-37.309978]},"properties":{"name":"Ararat Airport","ident":"YARA","type":"medium_airport","rank":2,"iata":"ARY","locality":"Ararat","elev_ft":1008}},{"type":"Feature","geometry":{"type":"Point","coordinates":[147.569379,-37.887539]},"properties":{"name":"Bairnsdale Airport","ident":"YBNS","type":"medium_airport","rank":2,"iata":"BSJ","locality":"Bairnsdale","elev_ft":165}},{"type":"Feature","geometry":{"type":"Point","coordinates":[146.007004,-36.551899]},"properties":{"name":"Benalla Airport","ident":"YBLA","type":"medium_airport","rank":2,"iata":"BLN","locality":"Benalla","elev_ft":569}},{"type":"Feature","geometry":{"type":"Point","coordinates":[147.888,-36.1828]},"properties":{"name":"Corryong Airport","ident":"YCRG","type":"medium_airport","rank":2,"iata":"CYG","elev_ft":963}},{"type":"Feature","geometry":{"type":"Point","coordinates":[144.761993,-36.1572]},"properties":{"name":"Echuca Airport","ident":"YECH","type":"medium_airport","rank":2,"iata":"ECH","elev_ft":323}},{"type":"Feature","geometry":{"type":"Point","coordinates":[142.065002,-37.648899]},"properties":{"name":"Hamilton Airport","ident":"YHML","type":"medium_airport","rank":2,"iata":"HLT","elev_ft":803}},{"type":"Feature","geometry":{"type":"Point","coordinates":[142.360001,-35.715302]},"properties":{"name":"Hopetoun Airport","ident":"YHPN","type":"medium_airport","rank":2,"iata":"HTU","elev_ft":256}},{"type":"Feature","geometry":{"type":"Point","coordinates":[142.173004,-36.669701]},"properties":{"name":"Horsham Airport","ident":"YHSM","type":"medium_airport","rank":2,"iata":"HSM","elev_ft":445}},{"type":"Feature","geometry":{"type":"Point","coordinates":[143.938995,-35.7514]},"properties":{"name":"Kerang Airport","ident":"YKER","type":"medium_airport","rank":2,"iata":"KRA","elev_ft":254}},{"type":"Feature","geometry":{"type":"Point","coordinates":[146.470817,-38.211004]},"properties":{"name":"Latrobe Valley Airport","ident":"YLTV","type":"medium_airport","rank":2,"iata":"TGN","locality":"Morwell","elev_ft":180}},{"type":"Feature","geometry":{"type":"Point","coordinates":[144.901993,-37.7281]},"properties":{"name":"Melbourne Essendon Airport","ident":"YMEN","type":"medium_airport","rank":2,"iata":"MEB","locality":"Essendon Fields","elev_ft":282}},{"type":"Feature","geometry":{"type":"Point","coordinates":[145.099799,-37.977765]},"properties":{"name":"Melbourne Moorabbin Airport","ident":"YMMB","type":"medium_airport","rank":2,"iata":"MBW","locality":"Melbourne","elev_ft":50}},{"type":"Feature","geometry":{"type":"Point","coordinates":[142.085999,-34.229198]},"properties":{"name":"Mildura Airport","ident":"YMIA","type":"medium_airport","rank":2,"iata":"MQL","locality":"Mildura","elev_ft":167}},{"type":"Feature","geometry":{"type":"Point","coordinates":[147.334,-37.047501]},"properties":{"name":"Mount Hotham Airport","ident":"YHOT","type":"medium_airport","rank":2,"iata":"MHU","locality":"Mount Hotham","elev_ft":4260}},{"type":"Feature","geometry":{"type":"Point","coordinates":[141.470993,-38.3181]},"properties":{"name":"Portland Airport","ident":"YPOD","type":"medium_airport","rank":2,"iata":"PTJ","elev_ft":265}},{"type":"Feature","geometry":{"type":"Point","coordinates":[147.149002,-38.0989]},"properties":{"name":"RAAF Base East Sale","ident":"YMES","type":"medium_airport","rank":2,"elev_ft":23}},{"type":"Feature","geometry":{"type":"Point","coordinates":[145.391473,-36.428341]},"properties":{"name":"Shepparton Airport","ident":"YSHT","type":"medium_airport","rank":2,"iata":"SHT","elev_ft":374}},{"type":"Feature","geometry":{"type":"Point","coordinates":[142.740997,-37.071701]},"properties":{"name":"Stawell Airport","ident":"YSWL","type":"medium_airport","rank":2,"iata":"SWC","elev_ft":807}},{"type":"Feature","geometry":{"type":"Point","coordinates":[143.533005,-35.375801]},"properties":{"name":"Swan Hill Airport","ident":"YSWH","type":"medium_airport","rank":2,"iata":"SWH","elev_ft":234}},{"type":"Feature","geometry":{"type":"Point","coordinates":[146.306896,-36.417914]},"properties":{"name":"Wangaratta Airport","ident":"YWGT","type":"medium_airport","rank":2,"iata":"WGT","locality":"Laceby","elev_ft":504}},{"type":"Feature","geometry":{"type":"Point","coordinates":[142.419006,-36.321098]},"properties":{"name":"Warracknabeal Airport","ident":"YWKB","type":"medium_airport","rank":2,"iata":"WKB","elev_ft":397}},{"type":"Feature","geometry":{"type":"Point","coordinates":[146.965335,-38.090827]},"properties":{"name":"West Sale Airport","ident":"YWSL","type":"medium_airport","rank":2,"iata":"SXE","locality":"Sale","elev_ft":72}},{"type":"Feature","geometry":{"type":"Point","coordinates":[143.399994,-37.1833]},"properties":{"name":"Amphitheatre Airport","ident":"YATR","type":"small_airport","rank":3}},{"type":"Feature","geometry":{"type":"Point","coordinates":[144.210649,-38.37228]},"properties":{"name":"Anglesea Airfield","ident":"AU-0802","type":"small_airport","rank":3,"locality":"Anglesea"}},{"type":"Feature","geometry":{"type":"Point","coordinates":[143.661175,-38.77493]},"properties":{"name":"Apollo Bay Airport","ident":"YAPO","type":"small_airport","rank":3}},{"type":"Feature","geometry":{"type":"Point","coordinates":[144.94017,-37.36936]},"properties":{"name":"Arkells Airfield","ident":"AU-0731","type":"small_airport","rank":3,"locality":"Bylands","elev_ft":1362}},{"type":"Feature","geometry":{"type":"Point","coordinates":[144.550003,-36.5667]},"properties":{"name":"Avonmore Airport","ident":"YAVM","type":"small_airport","rank":3}},{"type":"Feature","geometry":{"type":"Point","coordinates":[144.421667,-37.733333]},"properties":{"name":"Bacchus Marsh Airport","ident":"YBSS","type":"small_airport","rank":3,"locality":"Bacchus Marsh","elev_ft":520}},{"type":"Feature","geometry":{"type":"Point","coordinates":[145.805061,-36.551196]},"properties":{"name":"Baddaginnie (Earlston) Airport","ident":"YELS","type":"small_airport","rank":3,"locality":"Violet Town"}},{"type":"Feature","geometry":{"type":"Point","coordinates":[143.791,-37.5117]},"properties":{"name":"Ballarat Airport","ident":"YBLT","type":"small_airport","rank":3,"elev_ft":1433}},{"type":"Feature","geometry":{"type":"Point","coordinates":[143.845685,-37.559121]},"properties":{"name":"Ballarat Health Service Helipad","ident":"YXBT","type":"small_airport","rank":3,"locality":"Ballarat","elev_ft":1516}},{"type":"Feature","geometry":{"type":"Point","coordinates":[144.632996,-36.25]},"properties":{"name":"Bamawm Airport","ident":"YBMM","type":"small_airport","rank":3}},{"type":"Feature","geometry":{"type":"Point","coordinates":[144.427895,-38.256145]},"properties":{"name":"Barwon Heads Airport","ident":"YBRS","type":"small_airport","rank":3,"locality":"Connewarre","elev_ft":50}},{"type":"Feature","geometry":{"type":"Point","coordinates":[143.43,-37.495]},"properties":{"name":"Beaufort","ident":"YBFT","type":"small_airport","rank":3,"elev_ft":1300}},{"type":"Feature","geometry":{"type":"Point","coordinates":[143.25,-37.450001]},"properties":{"name":"Beaufort Airport","ident":"YBEF","type":"small_airport","rank":3}},{"type":"Feature","geometry":{"type":"Point","coordinates":[146.696389,-36.393333]},"properties":{"name":"Beechworth Airstrip","ident":"YBCH","type":"small_airport","rank":3,"locality":"Beechworth","elev_ft":2000}},{"type":"Feature","geometry":{"type":"Point","coordinates":[144.236209,-38.32697]},"properties":{"name":"Bellbrae Private Airstrip","ident":"AU-0417","type":"small_airport","rank":3,"locality":"BellBrae"}},{"type":"Feature","geometry":{"type":"Point","coordinates":[147.699144,-36.966867]},"properties":{"name":"Benambra Airport","ident":"YBRA","type":"small_airport","rank":3,"elev_ft":2200}},{"type":"Feature","geometry":{"type":"Point","coordinates":[144.330002,-36.739399]},"properties":{"name":"Bendigo Airport","ident":"YBDG","type":"small_airport","rank":3,"iata":"BXG","elev_ft":705}},{"type":"Feature","geometry":{"type":"Point","coordinates":[142.417007,-35.950001]},"properties":{"name":"Beulah 1 Airport","ident":"YBEU","type":"small_airport","rank":3}},{"type":"Feature","geometry":{"type":"Point","coordinates":[142.917007,-35.999699]},"properties":{"name":"Birchip Airport","ident":"YBIR","type":"small_airport","rank":3,"elev_ft":340}},{"type":"Feature","geometry":{"type":"Point","coordinates":[144.8096,-37.43064]},"properties":{"name":"Blue Tongue Airfield","ident":"AU-0730","type":"small_airport","rank":3,"locality":"Bolinda","elev_ft":1220}},{"type":"Feature","geometry":{"type":"Point","coordinates":[143.722994,-36.138637]},"properties":{"name":"Boort Airport","ident":"YBBT","type":"small_airport","rank":3,"locality":"Wedderburn","elev_ft":298}},{"type":"Feature","geometry":{"type":"Point","coordinates":[143.952109,-36.619558]},"properties":{"name":"Bridgewater Airport","ident":"YBGR","type":"small_airport","rank":3,"locality":"Bridgewater On Loddon","elev_ft":91}},{"type":"Feature","geometry":{"type":"Point","coordinates":[144.10146,-38.222243]},"properties":{"name":"Buckley Road South Airstrip","ident":"AU-0805","type":"small_airport","rank":3,"locality":"Modewarre"}},{"type":"Feature","geometry":{"type":"Point","coordinates":[145.668969,-38.621701]},"properties":{"name":"Bunurong Field","ident":"AU-0650","type":"small_airport","rank":3,"locality":"Inverloch"}},{"type":"Feature","geometry":{"type":"Point","coordinates":[145.75,-38.016701]},"properties":{"name":"Bunyip Airport","ident":"YBUP","type":"small_airport","rank":3}},{"type":"Feature","geometry":{"type":"Point","coordinates":[149.019432,-30.033896]},"properties":{"name":"Burren Junction Airstrip","ident":"AU-0342","type":"small_airport","rank":3,"locality":"Burren Junction"}},{"type":"Feature","geometry":{"type":"Point","coordinates":[149.167007,-37.516701]},"properties":{"name":"Cann River Airport","ident":"YCNR","type":"small_airport","rank":3}},{"type":"Feature","geometry":{"type":"Point","coordinates":[141.361664,-37.613335]},"properties":{"name":"Casterton Airport","ident":"YCTN","type":"small_airport","rank":3,"elev_ft":521}},{"type":"Feature","geometry":{"type":"Point","coordinates":[144.158231,-37.134218]},"properties":{"name":"Castlemaine Airport","ident":"YCAL","type":"small_airport","rank":3,"elev_ft":965}},{"type":"Feature","geometry":{"type":"Point","coordinates":[144.257996,-38.1483]},"properties":{"name":"Ceres Airport","ident":"YCES","type":"small_airport","rank":3}},{"type":"Feature","geometry":{"type":"Point","coordinates":[143.300003,-36.25]},"properties":{"name":"Charlton Airport","ident":"YCHL","type":"small_airport","rank":3,"locality":"Charlton","elev_ft":458}},{"type":"Feature","geometry":{"type":"Point","coordinates":[142.620993,-37.852763]},"properties":{"name":"Chatsworth Airport","ident":"YCWO","type":"small_airport","rank":3}},{"type":"Feature","geometry":{"type":"Point","coordinates":[144.93305,-38.48918]},"properties":{"name":"Clondrisse Airfield (private)","ident":"AU-0806","type":"small_airport","rank":3,"locality":"Cape Schanck"}},{"type":"Feature","geometry":{"type":"Point","coordinates":[147.1902,-38.037818]},"properties":{"name":"Clydebank private Airstrip","ident":"AU-0397","type":"small_airport","rank":3,"locality":"Clydebank"}},{"type":"Feature","geometry":{"type":"Point","coordinates":[143.056626,-38.323419]},"properties":{"name":"Cobden airport","ident":"YCDE","type":"small_airport","rank":3,"locality":"Camperdown","elev_ft":460}},{"type":"Feature","geometry":{"type":"Point","coordinates":[144.213812,-35.826478]},"properties":{"name":"Cohuna Airport","ident":"YCOH","type":"small_airport","rank":3}},{"type":"Feature","geometry":{"type":"Point","coordinates":[143.679993,-38.286701]},"properties":{"name":"Colac Airport","ident":"YOLA","type":"small_airport","rank":3,"iata":"XCO","locality":"Colac Otway Shire","elev_ft":450}},{"type":"Feature","geometry":{"type":"Point","coordinates":[145.408371,-37.727669]},"properties":{"name":"Coldstream Airport","ident":"YCEM","type":"small_airport","rank":3,"locality":"Coldstream","elev_ft":280}},{"type":"Feature","geometry":{"type":"Point","coordinates":[142.853812,-37.051503]},"properties":{"name":"Concongella private airfield","ident":"AU-0332","type":"small_airport","rank":3,"locality":"Concongella"}},{"type":"Feature","geometry":{"type":"Point","coordinates":[143.650157,-38.042585]},"properties":{"name":"Cressy Aerodrome","ident":"YCRE","type":"small_airport","rank":3,"elev_ft":420}},{"type":"Feature","geometry":{"type":"Point","coordinates":[141.615314,-34.190506]},"properties":{"name":"Cullulleraine airstrip private","ident":"AU-0265","type":"small_airport","rank":3,"locality":"Cullulleraine"}},{"type":"Feature","geometry":{"type":"Point","coordinates":[146.159431,-37.145053]},"properties":{"name":"Delatite Airstrip","ident":"AU-0054","type":"small_airport","rank":3,"locality":"Delatite","elev_ft":1164}},{"type":"Feature","geometry":{"type":"Point","coordinates":[144.0186,-36.6128]},"properties":{"name":"Derby Field","ident":"AU-0174","type":"small_airport","rank":3,"locality":"Bridgewater","elev_ft":461}},{"type":"Feature","geometry":{"type":"Point","coordinates":[143.147195,-37.982298]},"properties":{"name":"Derrinallum (Poligolet Station) airstrip","ident":"AU-0418","type":"small_airport","rank":3,"locality":"Derrinallum"}},{"type":"Feature","geometry":{"type":"Point","coordinates":[143.227778,-37.934167]},"properties":{"name":"Derrinallum Airport","ident":"YDER","type":"small_airport","rank":3,"elev_ft":600}},{"type":"Feature","geometry":{"type":"Point","coordinates":[143.007996,-36.360298]},"properties":{"name":"Donald Airport","ident":"YDOD","type":"small_airport","rank":3,"elev_ft":409}},{"type":"Feature","geometry":{"type":"Point","coordinates":[145.831097,-38.208972]},"properties":{"name":"Drouin Airport","ident":"YDRN","type":"small_airport","rank":3,"locality":"Drouin","elev_ft":330}},{"type":"Feature","geometry":{"type":"Point","coordinates":[144.622001,-38.198179]},"properties":{"name":"Drysdale Airstrip","ident":"AU-0620","type":"small_airport","rank":3,"elev_ft":164}},{"type":"Feature","geometry":{"type":"Point","coordinates":[143.699997,-36.849998]},"properties":{"name":"Dunolly Airport","ident":"YDLL","type":"small_airport","rank":3}},{"type":"Feature","geometry":{"type":"Point","coordinates":[141.266889,-37.020219]},"properties":{"name":"Edenhope Airport","ident":"YEDE","type":"small_airport","rank":3}},{"type":"Feature","geometry":{"type":"Point","coordinates":[145.832993,-37.208302]},"properties":{"name":"Eildon Weir Airport","ident":"YELW","type":"small_airport","rank":3}},{"type":"Feature","geometry":{"type":"Point","coordinates":[144.647198,-36.490179]},"properties":{"name":"Elmore Airport","ident":"YELM","type":"small_airport","rank":3}},{"type":"Feature","geometry":{"type":"Point","coordinates":[144.76829,-37.47136]},"properties":{"name":"Emu Creek Airfield","ident":"AU-0726","type":"small_airport","rank":3,"locality":"Clarkefield","elev_ft":1106}},{"type":"Feature","geometry":{"type":"Point","coordinates":[145.512697,-36.743703]},"properties":{"name":"Euroa Aerodrome","ident":"YEUA","type":"small_airport","rank":3,"locality":"Euroa","elev_ft":555}},{"type":"Feature","geometry":{"type":"Point","coordinates":[146.49034,-36.41171]},"properties":{"name":"Everton (Tarrawingee) Airport","ident":"AU-0733","type":"small_airport","rank":3,"locality":"Tarrawingee","elev_ft":545}},{"type":"Feature","geometry":{"type":"Point","coordinates":[146.054399,-38.708603]},"properties":{"name":"Fish Creek Airport","ident":"YFCK","type":"small_airport","rank":3,"locality":"Fish Creek","elev_ft":217}},{"type":"Feature","geometry":{"type":"Point","coordinates":[144.220791,-37.678114]},"properties":{"name":"Fiskville Airport","ident":"YFSK","type":"small_airport","rank":3,"locality":"Fiskville"}},{"type":"Feature","geometry":{"type":"Point","coordinates":[144.71962,-37.47852]},"properties":{"name":"Flying Circus Airfield","ident":"AU-0723","type":"small_airport","rank":3,"locality":"Clarkefield","elev_ft":1138}},{"type":"Feature","geometry":{"type":"Point","coordinates":[147.93401,-37.886065]},"properties":{"name":"Fraser Island (Gippsland reserve) airstrip","ident":"AU-0413","type":"small_airport","rank":3,"locality":"Fraser Island"}},{"type":"Feature","geometry":{"type":"Point","coordinates":[149.91114,-37.565913]},"properties":{"name":"Gabo Island Airport","ident":"YGBO","type":"small_airport","rank":3,"locality":"Mallacoota","elev_ft":96}},{"type":"Feature","geometry":{"type":"Point","coordinates":[147.140211,-38.288697]},"properties":{"name":"Gleneagles Park Station","ident":"AU-0337","type":"small_airport","rank":3,"locality":"Gleneagles Park Station"}},{"type":"Feature","geometry":{"type":"Point","coordinates":[144.1075,-38.165]},"properties":{"name":"Gnarwarre Airstrip","ident":"YGNE","type":"small_airport","rank":3,"elev_ft":420}},{"type":"Feature","geometry":{"type":"Point","coordinates":[142.270367,-37.048346]},"properties":{"name":"Grampians Airport","ident":"YGMP","type":"small_airport","rank":3}},{"type":"Feature","geometry":{"type":"Point","coordinates":[148.0,-37.842201]},"properties":{"name":"Great Lakes Vi Airport","ident":"YGRL","type":"small_airport","rank":3,"elev_ft":184}},{"type":"Feature","geometry":{"type":"Point","coordinates":[144.381509,-35.966675]},"properties":{"name":"Gunbower Airport","ident":"YGBW","type":"small_airport","rank":3}},{"type":"Feature","geometry":{"type":"Point","coordinates":[143.48141,-38.783163]},"properties":{"name":"Hordern Vale Airstrip","ident":"AU-0801","type":"small_airport","rank":3,"locality":"Hordern Vale"}},{"type":"Feature","geometry":{"type":"Point","coordinates":[145.733481,-38.612709]},"properties":{"name":"Inverloch Airport","ident":"YIVE","type":"small_airport","rank":3,"locality":"Inverloch","elev_ft":100}},{"type":"Feature","geometry":{"type":"Point","coordinates":[146.91748,-37.85774]},"properties":{"name":"JDandBoo","ident":"AU-0783","type":"small_airport","rank":3,"locality":"Boisdale","elev_ft":380}},{"type":"Feature","geometry":{"type":"Point","coordinates":[141.267964,-36.340918]},"properties":{"name":"Kaniva Airport","ident":"YKNV","type":"small_airport","rank":3,"locality":"Kaniva","elev_ft":446}},{"type":"Feature","geometry":{"type":"Point","coordinates":[147.935501,-37.896405]},"properties":{"name":"Kelly head airstrip","ident":"AU-0414","type":"small_airport","rank":3,"locality":"Kelly Head"}},{"type":"Feature","geometry":{"type":"Point","coordinates":[145.486722,-38.16887]},"properties":{"name":"Koo Wee Rup (Aardel Port) Airfield","ident":"YKWR","type":"small_airport","rank":3,"locality":"Koo Wee Rup","elev_ft":50}},{"type":"Feature","geometry":{"type":"Point","coordinates":[142.216995,-36.0]},"properties":{"name":"Koongarra Airport","ident":"YKOG","type":"small_airport","rank":3}},{"type":"Feature","geometry":{"type":"Point","coordinates":[144.524994,-36.179798]},"properties":{"name":"Kotta Airport","ident":"YKTA","type":"small_airport","rank":3}},{"type":"Feature","geometry":{"type":"Point","coordinates":[143.709755,-37.899578]},"properties":{"name":"Kuruc-A-Ruc South Airport","ident":"YRKE","type":"small_airport","rank":3,"locality":"Rokewood"}},{"type":"Feature","geometry":{"type":"Point","coordinates":[143.149994,-38.049999]},"properties":{"name":"Kurweeton Airport","ident":"YKUW","type":"small_airport","rank":3}},{"type":"Feature","geometry":{"type":"Point","coordinates":[144.972067,-36.332482]},"properties":{"name":"Kyabram Airport","ident":"YKYB","type":"small_airport","rank":3,"locality":"Private Airfield in the Shire of Campaspe","elev_ft":340}},{"type":"Feature","geometry":{"type":"Point","coordinates":[144.447298,-37.226262]},"properties":{"name":"Kyneton Airport","ident":"YKTN","type":"small_airport","rank":3,"locality":"Kyneton","elev_ft":1650}},{"type":"Feature","geometry":{"type":"Point","coordinates":[142.882996,-37.6833]},"properties":{"name":"Lake Bolac Airport","ident":"YLBO","type":"small_airport","rank":3}},{"type":"Feature","geometry":{"type":"Point","coordinates":[146.772495,-37.892352]},"properties":{"name":"Lake Glen Maggie Airfield (Coongulla)","ident":"AU-0338","type":"small_airport","rank":3,"locality":"Lake Glen Maggie (Coongulla)"}},{"type":"Feature","geometry":{"type":"Point","coordinates":[143.800003,-35.983299]},"properties":{"name":"Lake Leagur Airport","ident":"YLLR","type":"small_airport","rank":3}},{"type":"Feature","geometry":{"type":"Point","coordinates":[147.672729,-36.961757]},"properties":{"name":"Lake Omeo Dry Lake Ultralightport","ident":"AU-0052","type":"small_airport","rank":3}},{"type":"Feature","geometry":{"type":"Point","coordinates":[147.951164,-37.852773]},"properties":{"name":"Lakes Entrance Airport","ident":"YLET","type":"small_airport","rank":3}},{"type":"Feature","geometry":{"type":"Point","coordinates":[147.957993,-37.852699]},"properties":{"name":"Lakes Entrance Airport","ident":"YLKE","type":"small_airport","rank":3}},{"type":"Feature","geometry":{"type":"Point","coordinates":[144.73372,-37.48196]},"properties":{"name":"Legate Airfield","ident":"AU-0724","type":"small_airport","rank":3,"locality":"Clarkefield","elev_ft":1106}},{"type":"Feature","geometry":{"type":"Point","coordinates":[145.860565,-38.496472]},"properties":{"name":"Leongatha Airport","ident":"YLEG","type":"small_airport","rank":3,"locality":"Leongatha South","elev_ft":263}},{"type":"Feature","geometry":{"type":"Point","coordinates":[144.103058,-37.921233]},"properties":{"name":"Lethbridge Airpark","ident":"YLED","type":"small_airport","rank":3,"elev_ft":790}},{"type":"Feature","geometry":{"type":"Point","coordinates":[145.367,-37.693]},"properties":{"name":"Lilydale Airport","ident":"YLIL","type":"small_airport","rank":3,"elev_ft":242}},{"type":"Feature","geometry":{"type":"Point","coordinates":[145.266425,-37.477018]},"properties":{"name":"Ling Lake Airfield","ident":"AU-0333","type":"small_airport","rank":3,"locality":"Ling Lake"}},{"type":"Feature","geometry":{"type":"Point","coordinates":[143.350006,-37.9333]},"properties":{"name":"Lismore Airport","ident":"YLSM","type":"small_airport","rank":3}},{"type":"Feature","geometry":{"type":"Point","coordinates":[145.348007,-36.814999]},"properties":{"name":"Locksley Field","ident":"YLCS","type":"small_airport","rank":3,"locality":"Locksley","elev_ft":165}},{"type":"Feature","geometry":{"type":"Point","coordinates":[145.778,-38.108299]},"properties":{"name":"Longwarry Airport","ident":"YLOY","type":"small_airport","rank":3}},{"type":"Feature","geometry":{"type":"Point","coordinates":[145.46579,-36.814219]},"properties":{"name":"Longwood Airport","ident":"YLOD","type":"small_airport","rank":3,"locality":"Longwood East","elev_ft":633}},{"type":"Feature","geometry":{"type":"Point","coordinates":[144.332993,-38.033298]},"properties":{"name":"Lovely Banks Airport","ident":"YLVB","type":"small_airport","rank":3}},{"type":"Feature","geometry":{"type":"Point","coordinates":[149.720001,-37.598301]},"properties":{"name":"Mallacoota Airport","ident":"YMCO","type":"small_airport","rank":3,"iata":"XMC","elev_ft":31}},{"type":"Feature","geometry":{"type":"Point","coordinates":[142.861705,-35.046783]},"properties":{"name":"Manangatang Airport","ident":"YMAG","type":"small_airport","rank":3}},{"type":"Feature","geometry":{"type":"Point","coordinates":[145.184006,-36.888302]},"properties":{"name":"Mangalore Airport","ident":"YMNG","type":"small_airport","rank":3,"locality":"Mangalore","elev_ft":467}},{"type":"Feature","geometry":{"type":"Point","coordinates":[146.120669,-37.073875]},"properties":{"name":"Mansfield Airport","ident":"YMFD","type":"small_airport","rank":3,"elev_ft":1050}},{"type":"Feature","geometry":{"type":"Point","coordinates":[144.73494,-37.48231]},"properties":{"name":"Marshall Airfield","ident":"AU-0725","type":"small_airport","rank":3,"locality":"Clarkefield","elev_ft":1106}},{"type":"Feature","geometry":{"type":"Point","coordinates":[143.709,-37.0331]},"properties":{"name":"Maryborough Airport","ident":"YMBU","type":"small_airport","rank":3,"elev_ft":766}},{"type":"Feature","geometry":{"type":"Point","coordinates":[145.445069,-38.355822]},"properties":{"name":"McLeod Airstrip","ident":"AU-0807","type":"small_airport","rank":3,"locality":"French Island"}},{"type":"Feature","geometry":{"type":"Point","coordinates":[144.565053,-37.621793]},"properties":{"name":"Melton Airport","ident":"YMEL","type":"small_airport","rank":3,"locality":"Melton","elev_ft":204}},{"type":"Feature","geometry":{"type":"Point","coordinates":[145.707616,-36.967704]},"properties":{"name":"Merton Airport","ident":"YMEO","type":"small_airport","rank":3,"locality":"Merton","elev_ft":1101}},{"type":"Feature","geometry":{"type":"Point","coordinates":[146.433063,-36.456197]},"properties":{"name":"Milawa (Brown Brothers) Airport","ident":"YILA","type":"small_airport","rank":3,"locality":"Milawa","elev_ft":525}},{"type":"Feature","geometry":{"type":"Point","coordinates":[142.057185,-34.262146]},"properties":{"name":"Mildura (Sunraysia Gliding Club) Airfield","ident":"AU-0767","type":"small_airport","rank":3,"locality":"Koorlong","elev_ft":180}},{"type":"Feature","geometry":{"type":"Point","coordinates":[147.359018,-36.513879]},"properties":{"name":"Mitta Mitta Airport","ident":"YITT","type":"small_airport","rank":3,"elev_ft":820}},{"type":"Feature","geometry":{"type":"Point","coordinates":[143.286118,-36.971668]},"properties":{"name":"Moonambel Airfield","ident":"AU-0028","type":"small_airport","rank":3,"elev_ft":1100}},{"type":"Feature","geometry":{"type":"Point","coordinates":[147.168903,-36.731576]},"properties":{"name":"Mount Beauty Airport","ident":"YMBT","type":"small_airport","rank":3,"locality":"Mount Beauty","elev_ft":1100}},{"type":"Feature","geometry":{"type":"Point","coordinates":[144.320795,-38.260113]},"properties":{"name":"Mount Duneed Airfield","ident":"AU-0804","type":"small_airport","rank":3,"locality":"Mount Duneed"}},{"type":"Feature","geometry":{"type":"Point","coordinates":[143.177537,-37.902928]},"properties":{"name":"Mount Elephant Airport","ident":"YMPH","type":"small_airport","rank":3}},{"type":"Feature","geometry":{"type":"Point","coordinates":[142.603397,-37.295496]},"properties":{"name":"Mount William Airport","ident":"YMWM","type":"small_airport","rank":3}},{"type":"Feature","geometry":{"type":"Point","coordinates":[141.941351,-34.766728]},"properties":{"name":"Murray-Sunset Airport","ident":"AU-0393","type":"small_airport","rank":3,"locality":"Murray-Sunset"}},{"type":"Feature","geometry":{"type":"Point","coordinates":[145.125,-36.7383]},"properties":{"name":"Nagambie Airport","ident":"YNGB","type":"small_airport","rank":3}},{"type":"Feature","geometry":{"type":"Point","coordinates":[145.57565,-38.067402]},"properties":{"name":"Nar Nar Goon Airstrip","ident":"YNNG","type":"small_airport","rank":3,"elev_ft":148}},{"type":"Feature","geometry":{"type":"Point","coordinates":[143.367798,-35.162805]},"properties":{"name":"Natya Airport","ident":"NYA","type":"small_airport","rank":3}},{"type":"Feature","geometry":{"type":"Point","coordinates":[143.091103,-36.920929]},"properties":{"name":"Navarre Airport","ident":"YNVE","type":"small_airport","rank":3}},{"type":"Feature","geometry":{"type":"Point","coordinates":[141.334734,-34.146405]},"properties":{"name":"Neds Corner Airport","ident":"AU-0266","type":"small_airport","rank":3,"locality":"Neds Corner"}},{"type":"Feature","geometry":{"type":"Point","coordinates":[146.917496,-37.857752]},"properties":{"name":"Newry Airfield","ident":"AU-0396","type":"small_airport","rank":3,"locality":"Newry"}},{"type":"Feature","geometry":{"type":"Point","coordinates":[141.643375,-36.310088]},"properties":{"name":"Nhill Airport","ident":"YNHL","type":"small_airport","rank":3,"locality":"Nhill","elev_ft":454}},{"type":"Feature","geometry":{"type":"Point","coordinates":[143.699997,-35.783298]},"properties":{"name":"Normanville Airport","ident":"YNVL","type":"small_airport","rank":3}},{"type":"Feature","geometry":{"type":"Point","coordinates":[147.606578,-37.10662]},"properties":{"name":"Omeo Airport","ident":"YOMO","type":"small_airport","rank":3}},{"type":"Feature","geometry":{"type":"Point","coordinates":[148.610001,-37.790001]},"properties":{"name":"Orbost Airport","ident":"YORB","type":"small_airport","rank":3,"iata":"RBS","elev_ft":28}},{"type":"Feature","geometry":{"type":"Point","coordinates":[142.354778,-35.088819]},"properties":{"name":"Ouyen Airport","ident":"YOUY","type":"small_airport","rank":3,"iata":"OYN","locality":"Ouyen"}},{"type":"Feature","geometry":{"type":"Point","coordinates":[142.193899,-35.369945]},"properties":{"name":"Patchewollock Airport","ident":"YPCH","type":"small_airport","rank":3,"locality":"Patchewollock"}},{"type":"Feature","geometry":{"type":"Point","coordinates":[142.903826,-38.607162]},"properties":{"name":"Peterborough Airport","ident":"YPBH","type":"small_airport","rank":3}},{"type":"Feature","geometry":{"type":"Point","coordinates":[142.676517,-37.231077]},"properties":{"name":"Pomonal Airstrip","ident":"AU-0045","type":"small_airport","rank":3}},{"type":"Feature","geometry":{"type":"Point","coordinates":[146.890039,-36.717731]},"properties":{"name":"Porepunkah Airport","ident":"YPOK","type":"small_airport","rank":3,"iata":"MBF","elev_ft":935}},{"type":"Feature","geometry":{"type":"Point","coordinates":[144.139008,-36.307201]},"properties":{"name":"Prairie Airport","ident":"YPRA","type":"small_airport","rank":3}},{"type":"Feature","geometry":{"type":"Point","coordinates":[145.064181,-36.998062]},"properties":{"name":"Puckapunyal (Military) Airport","ident":"YPKL","type":"small_airport","rank":3,"locality":"Puckapunyal","elev_ft":168}},{"type":"Feature","geometry":{"type":"Point","coordinates":[144.126763,-36.060618]},"properties":{"name":"Pyramid Hill Airport","ident":"YPYD","type":"small_airport","rank":3}},{"type":"Feature","geometry":{"type":"Point","coordinates":[143.514469,-35.856642]},"properties":{"name":"Quambatook Airport","ident":"YQBK","type":"small_airport","rank":3}},{"type":"Feature","geometry":{"type":"Point","coordinates":[144.753006,-37.932201]},"properties":{"name":"RAAF Williams, Point Cook Base","ident":"YMPC","type":"small_airport","rank":3,"locality":"Point Cook","elev_ft":14}},{"type":"Feature","geometry":{"type":"Point","coordinates":[143.305664,-37.377387]},"properties":{"name":"Raglan Airport","ident":"YRAG","type":"small_airport","rank":3}},{"type":"Feature","geometry":{"type":"Point","coordinates":[141.977863,-35.907826]},"properties":{"name":"Rainbow Airport","ident":"YRBW","type":"small_airport","rank":3}},{"type":"Feature","geometry":{"type":"Point","coordinates":[144.241183,-36.537181]},"properties":{"name":"Raywood Airfield","ident":"AU-0405","type":"small_airport","rank":3,"locality":"Raywood","elev_ft":450}},{"type":"Feature","geometry":{"type":"Point","coordinates":[144.721098,-37.478705]},"properties":{"name":"Riddell Airport","ident":"YRID","type":"small_airport","rank":3,"locality":"Clarkefield","elev_ft":1150}},{"type":"Feature","geometry":{"type":"Point","coordinates":[142.773042,-34.642887]},"properties":{"name":"Robinvale Airport","ident":"YROI","type":"small_airport","rank":3,"iata":"RBC","locality":"Robinvale","elev_ft":87}},{"type":"Feature","geometry":{"type":"Point","coordinates":[144.67078,-37.3019]},"properties":{"name":"Rochford Airstrip","ident":"AU-0728","type":"small_airport","rank":3,"locality":"Rochford","elev_ft":1886}},{"type":"Feature","geometry":{"type":"Point","coordinates":[144.737796,-37.392401]},"properties":{"name":"Romsey Airport","ident":"YRSY","type":"small_airport","rank":3,"locality":"Romsey","elev_ft":1500}},{"type":"Feature","geometry":{"type":"Point","coordinates":[144.483743,-37.916945]},"properties":{"name":"Rothwell Airfield","ident":"AU-0175","type":"small_airport","rank":3,"locality":"Little River","elev_ft":298}},{"type":"Feature","geometry":{"type":"Point","coordinates":[143.186005,-36.6367]},"properties":{"name":"Saint Arnaud Airport","ident":"YSTA","type":"small_airport","rank":3,"elev_ft":639}},{"type":"Feature","geometry":{"type":"Point","coordinates":[142.889879,-35.530594]},"properties":{"name":"Sea Lake Airport","ident":"YSLK","type":"small_airport","rank":3,"elev_ft":56}},{"type":"Feature","geometry":{"type":"Point","coordinates":[145.039724,-36.788471]},"properties":{"name":"Skydive Nagambie Airport","ident":"YNGW","type":"small_airport","rank":3,"elev_ft":475}},{"type":"Feature","geometry":{"type":"Point","coordinates":[143.968121,-37.258037]},"properties":{"name":"Smeaton airfield private","ident":"AU-0392","type":"small_airport","rank":3,"locality":"Smeaton"}},{"type":"Feature","geometry":{"type":"Point","coordinates":[146.766046,-37.348573]},"properties":{"name":"Snowy Range Airfield","ident":"AU-0053","type":"small_airport","rank":3,"elev_ft":5200}},{"type":"Feature","geometry":{"type":"Point","coordinates":[145.932827,-36.295969]},"properties":{"name":"St James Private airfield","ident":"AU-0391","type":"small_airport","rank":3,"locality":"St James"}},{"type":"Feature","geometry":{"type":"Point","coordinates":[144.688995,-38.170101]},"properties":{"name":"St Leonards Airfield","ident":"YSLE","type":"small_airport","rank":3,"elev_ft":47}},{"type":"Feature","geometry":{"type":"Point","coordinates":[146.054201,-38.605335]},"properties":{"name":"Stony Creek (Buffalo) Airfield","ident":"AU-0336","type":"small_airport","rank":3,"locality":"Stony Creek","elev_ft":197}},{"type":"Feature","geometry":{"type":"Point","coordinates":[147.092582,-37.953674]},"properties":{"name":"Stratford","ident":"AU-0782","type":"small_airport","rank":3,"locality":"Stratford","elev_ft":180}},{"type":"Feature","geometry":{"type":"Point","coordinates":[145.738007,-36.855]},"properties":{"name":"Strathbogie Airport","ident":"YSBG","type":"small_airport","rank":3}},{"type":"Feature","geometry":{"type":"Point","coordinates":[144.700299,-37.511586]},"properties":{"name":"Sunbury (Penfield) Airfield","ident":"YPEF","type":"small_airport","rank":3,"locality":"Sunbury","elev_ft":1150}},{"type":"Feature","geometry":{"type":"Point","coordinates":[144.749147,-37.529859]},"properties":{"name":"Sunbury East Airport","ident":"AU-0334","type":"small_airport","rank":3,"locality":"Sunbury"}},{"type":"Feature","geometry":{"type":"Point","coordinates":[145.699997,-37.350498]},"properties":{"name":"Taggerty Airport","ident":"YTGG","type":"small_airport","rank":3}},{"type":"Feature","geometry":{"type":"Point","coordinates":[144.824,-37.43535]},"properties":{"name":"The Boreen Airstrip","ident":"AU-0729","type":"small_airport","rank":3,"locality":"Darraweit Guim","elev_ft":1158}},{"type":"Feature","geometry":{"type":"Point","coordinates":[145.4232,-38.215856]},"properties":{"name":"Tooradin Airport","ident":"YTDN","type":"small_airport","rank":3,"elev_ft":3}},{"type":"Feature","geometry":{"type":"Point","coordinates":[144.365005,-38.299999]},"properties":{"name":"Torquay Airport","ident":"YTQY","type":"small_airport","rank":3,"locality":"Torquay","elev_ft":9}},{"type":"Feature","geometry":{"type":"Point","coordinates":[144.352116,-38.282987]},"properties":{"name":"Torquay Private Airstrip","ident":"AU-0803","type":"small_airport","rank":3,"locality":"Lambidgee"}},{"type":"Feature","geometry":{"type":"Point","coordinates":[144.533005,-36.0667]},"properties":{"name":"Torrumbarry Airport","ident":"YTRB","type":"small_airport","rank":3}},{"type":"Feature","geometry":{"type":"Point","coordinates":[143.458958,-37.438747]},"properties":{"name":"Trawalla Airport","ident":"AU-0044","type":"small_airport","rank":3,"elev_ft":900}},{"type":"Feature","geometry":{"type":"Point","coordinates":[145.179406,-38.266826]},"properties":{"name":"Tyabb Airport","ident":"YTYA","type":"small_airport","rank":3,"locality":"Tyabb","elev_ft":88}},{"type":"Feature","geometry":{"type":"Point","coordinates":[144.76043,-37.39168]},"properties":{"name":"Valken Farm Airstrip","ident":"AU-0727","type":"small_airport","rank":3,"locality":"Romsey","elev_ft":1476}},{"type":"Feature","geometry":{"type":"Point","coordinates":[142.340821,-37.183139]},"properties":{"name":"Victoria Valley Airbase","ident":"AU-0406","type":"small_airport","rank":3,"locality":"Victoria Valley Grampians"}},{"type":"Feature","geometry":{"type":"Point","coordinates":[142.270004,-37.5]},"properties":{"name":"Victoria Valley Airport","ident":"YVVA","type":"small_airport","rank":3}},{"type":"Feature","geometry":{"type":"Point","coordinates":[145.723205,-36.598167]},"properties":{"name":"Violet Town Airfield","ident":"AU-0341","type":"small_airport","rank":3,"locality":"Violet Town","elev_ft":558}},{"type":"Feature","geometry":{"type":"Point","coordinates":[145.242379,-36.68112]},"properties":{"name":"Wahring Field","ident":"AU-0404","type":"small_airport","rank":3,"locality":"Wahring","elev_ft":410}},{"type":"Feature","geometry":{"type":"Point","coordinates":[142.447006,-38.2953]},"properties":{"name":"Warrnambool Airport","ident":"YWBL","type":"small_airport","rank":3,"iata":"WMB","elev_ft":242}},{"type":"Feature","geometry":{"type":"Point","coordinates":[146.445331,-38.682382]},"properties":{"name":"Welshpool Airport","ident":"WHL","type":"small_airport","rank":3,"iata":"WHL","locality":"Welshpool","elev_ft":35}},{"type":"Feature","geometry":{"type":"Point","coordinates":[146.28383,-38.949897]},"properties":{"name":"Wilsons Promontory Airport (Yanakie Airport)","ident":"YWLP","type":"small_airport","rank":3,"locality":"Wilsons Promontory","elev_ft":89}},{"type":"Feature","geometry":{"type":"Point","coordinates":[145.623001,-38.471699]},"properties":{"name":"Wonthaggi Airport","ident":"YWON","type":"small_airport","rank":3}},{"type":"Feature","geometry":{"type":"Point","coordinates":[144.182999,-36.633301]},"properties":{"name":"Woodvale Airport","ident":"YWOV","type":"small_airport","rank":3}},{"type":"Feature","geometry":{"type":"Point","coordinates":[144.370733,-37.936064]},"properties":{"name":"Wooloomanata Airfield","ident":"AU-0322","type":"small_airport","rank":3,"locality":"Wooloomanata"}},{"type":"Feature","geometry":{"type":"Point","coordinates":[143.782748,-36.093359]},"properties":{"name":"Wright Field","ident":"AU-0121","type":"small_airport","rank":3,"locality":"Yando","elev_ft":306}},{"type":"Feature","geometry":{"type":"Point","coordinates":[143.242996,-36.0583]},"properties":{"name":"Wycheproof Airport","ident":"YWYF","type":"small_airport","rank":3,"elev_ft":107}},{"type":"Feature","geometry":{"type":"Point","coordinates":[146.19307,-38.80677]},"properties":{"name":"Yanakie Airstrip","ident":"AU-0721","type":"small_airport","rank":3,"locality":"Yanakie","elev_ft":62}},{"type":"Feature","geometry":{"type":"Point","coordinates":[146.752854,-38.566654]},"properties":{"name":"Yarram Airport","ident":"YYRM","type":"small_airport","rank":3,"elev_ft":15}},{"type":"Feature","geometry":{"type":"Point","coordinates":[146.027958,-36.031512]},"properties":{"name":"Yarrawonga Airport","ident":"YYWG","type":"small_airport","rank":3,"elev_ft":423}},{"type":"Feature","geometry":{"type":"Point","coordinates":[146.429993,-37.215801]},"properties":{"name":"Yea Airport","ident":"YEAT","type":"small_airport","rank":3}},{"type":"Feature","geometry":{"type":"Point","coordinates":[145.323056,-37.175904]},"properties":{"name":"Yeaburn Airport","ident":"YYEA","type":"small_airport","rank":3}},{"type":"Feature","geometry":{"type":"Point","coordinates":[144.092763,-38.260015]},"properties":{"name":"lake Modewarre Private airstrip","ident":"AU-0415","type":"small_airport","rank":3,"locality":"Lake modeWarre","elev_ft":420}},{"type":"Feature","geometry":{"type":"Point","coordinates":[144.099605,-38.260736]},"properties":{"name":"lake Modewarre Private airstrip no.2","ident":"AU-0416","type":"small_airport","rank":3,"locality":"Lake ModeWarre"}},{"type":"Feature","geometry":{"type":"Point","coordinates":[145.717455,-37.195448]},"properties":{"name":"Alexandra Hospital Heliport","ident":"YAXA","type":"heliport","rank":4,"locality":"Alexandra","elev_ft":787}},{"type":"Feature","geometry":{"type":"Point","coordinates":[144.9813,-37.84526]},"properties":{"name":"Alfred Hospital Helipad","ident":"YAFD","type":"heliport","rank":4,"locality":"Melbourne","elev_ft":80}},{"type":"Feature","geometry":{"type":"Point","coordinates":[144.434386,-37.678335]},"properties":{"name":"Bacchus Marsh and Melton Regional Hospital Heliport","ident":"AU-0631","type":"heliport","rank":4,"locality":"Bacchus Marsh","elev_ft":351}},{"type":"Feature","geometry":{"type":"Point","coordinates":[147.676063,-38.296874]},"properties":{"name":"Barracouta Platform Helipad","ident":"YUTA","type":"heliport","rank":4,"elev_ft":100}},{"type":"Feature","geometry":{"type":"Point","coordinates":[147.3775,-38.487222]},"properties":{"name":"Dolphin Platform Helipad","ident":"AU-0525","type":"heliport","rank":4}},{"type":"Feature","geometry":{"type":"Point","coordinates":[144.585626,-37.484153]},"properties":{"name":"Gisborne Helipad","ident":"YGIS","type":"heliport","rank":4,"locality":"Gisborne","elev_ft":1373}},{"type":"Feature","geometry":{"type":"Point","coordinates":[143.105948,-38.660356]},"properties":{"name":"Glenample Heliport","ident":"YGHP","type":"heliport","rank":4,"locality":"Princetown","elev_ft":200}},{"type":"Feature","geometry":{"type":"Point","coordinates":[147.16922,-38.21962]},"properties":{"name":"Longford Heliport","ident":"AU-0074","type":"heliport","rank":4,"locality":"Bass Straight Oil and Gas industry","elev_ft":174}},{"type":"Feature","geometry":{"type":"Point","coordinates":[144.956789,-37.822272]},"properties":{"name":"Melbourne Heliport, Batman Park","ident":"YBPK","type":"heliport","rank":4,"iata":"KAH","locality":"Melbourne","elev_ft":10}},{"type":"Feature","geometry":{"type":"Point","coordinates":[145.3766,-37.8594]},"properties":{"name":"Olinda (DSE) Helibase","ident":"AU-0111","type":"heliport","rank":4,"locality":"Olinda / Mt Dandenong","elev_ft":1852}},{"type":"Feature","geometry":{"type":"Point","coordinates":[143.681306,-38.23968]},"properties":{"name":"Otway Helicopters","ident":"AU-0813","type":"heliport","rank":4,"locality":"Illewarra"}},{"type":"Feature","geometry":{"type":"Point","coordinates":[145.983483,-36.97532]},"properties":{"name":"Paton Air Helicopters","ident":"AU-0812","type":"heliport","rank":4,"locality":"Maindample"}},{"type":"Feature","geometry":{"type":"Point","coordinates":[145.328457,-38.520689]},"properties":{"name":"Phillip Island Heliport","ident":"YPID","type":"heliport","rank":4,"locality":"Newhaven","elev_ft":13}},{"type":"Feature","geometry":{"type":"Point","coordinates":[143.040556,-38.628889]},"properties":{"name":"Port Campbell Heliport","ident":"YPHP","type":"heliport","rank":4,"locality":"Port Campbell","elev_ft":241}},{"type":"Feature","geometry":{"type":"Point","coordinates":[141.606267,-38.341439]},"properties":{"name":"Portland Hospital Helipad","ident":"YPXR","type":"heliport","rank":4,"locality":"Portland"}},{"type":"Feature","geometry":{"type":"Point","coordinates":[144.951309,-37.794058]},"properties":{"name":"Royal Childrens Hospital Helipad","ident":"YRHO","type":"heliport","rank":4,"locality":"Melbourne","elev_ft":126}},{"type":"Feature","geometry":{"type":"Point","coordinates":[144.95593,-37.799243]},"properties":{"name":"Royal Melbourne Hospital Helipad","ident":"YRMH","type":"heliport","rank":4,"locality":"Melbourne","elev_ft":221}},{"type":"Feature","geometry":{"type":"Point","coordinates":[146.42367,-39.12651]},"properties":{"name":"South East Point Emergency Heliport","ident":"AU-0719","type":"heliport","rank":4,"locality":"Wilsons Promontory","elev_ft":148}},{"type":"Feature","geometry":{"type":"Point","coordinates":[146.38207,-39.09819]},"properties":{"name":"Telegraph Track Emergency Heliport","ident":"AU-0720","type":"heliport","rank":4,"locality":"Wilsons Promontory","elev_ft":896}},{"type":"Feature","geometry":{"type":"Point","coordinates":[146.328529,-39.03146]},"properties":{"name":"Tidal River Heliport","ident":"YTDL","type":"heliport","rank":4,"locality":"Wilsons Promontory","elev_ft":43}},{"type":"Feature","geometry":{"type":"Point","coordinates":[146.08882,-36.52245]},"properties":{"name":"Winton Motor Raceway Heliport","ident":"AU-0732","type":"heliport","rank":4,"locality":"Winton","elev_ft":594}},{"type":"Feature","geometry":{"type":"Point","coordinates":[144.951111,-37.823333]},"properties":{"name":"Yarra Bank Heliport","ident":"YYBK","type":"heliport","rank":4,"locality":"Melbourne","elev_ft":4}}]}